<?xml version="1.0" encoding="UTF-8"?>
<kml xmlns="http://www.opengis.net/kml/2.2">
<Document>
<name>Pacific surveys across the 180th meridian (synthetic)</name>
<Placemark><name>Taveuni survey block</name><ExtendedData><Data name="country"><value>Fiji</value></Data><Data name="note"><value>Protected forest excluded as a hole</value></Data></ExtendedData><Polygon><outerBoundaryIs><LinearRing><coordinates>179.970000000,-16.820000000 -179.970000000,-16.820000000 -179.970000000,-16.780000000 179.970000000,-16.780000000 179.970000000,-16.820000000</coordinates></LinearRing></outerBoundaryIs><innerBoundaryIs><LinearRing><coordinates>179.990000000,-16.810000000 -179.990000000,-16.810000000 -179.990000000,-16.790000000 179.990000000,-16.790000000 179.990000000,-16.810000000</coordinates></LinearRing></innerBoundaryIs></Polygon></Placemark>
<Placemark><name>Reef survey zone (stored split at 180)</name><ExtendedData><Data name="country"><value>Fiji</value></Data><Data name="note"><value>Written as two halves, as GeoJSON recommends</value></Data></ExtendedData><MultiGeometry><Polygon><outerBoundaryIs><LinearRing><coordinates>179.980000000,-16.950000000 180.000000000,-16.950000000 180.000000000,-16.920000000 179.980000000,-16.920000000 179.980000000,-16.950000000</coordinates></LinearRing></outerBoundaryIs></Polygon><Polygon><outerBoundaryIs><LinearRing><coordinates>-180.000000000,-16.950000000 -179.980000000,-16.950000000 -179.980000000,-16.920000000 -180.000000000,-16.920000000 -180.000000000,-16.950000000</coordinates></LinearRing></outerBoundaryIs></Polygon></MultiGeometry></Placemark>
<Placemark><name>Inter-island ferry route</name><ExtendedData><Data name="from"><value>Savusavu</value></Data><Data name="to"><value>Qamea</value></Data></ExtendedData><LineString><coordinates>179.340000000,-16.780000000 179.800000000,-16.800000000 -179.770000000,-16.760000000</coordinates></LineString></Placemark>
<Placemark><name>Subsea cable route</name><ExtendedData><Data name="region"><value>Aleutian Islands</value></Data><Data name="note"><value>Long enough to need densifying</value></Data></ExtendedData><LineString><coordinates>173.200000000,52.900000000 178.000000000,52.400000000 -176.650000000,51.880000000</coordinates></LineString></Placemark>
<Placemark><name>Survey control point</name><ExtendedData><Data name="type"><value>GNSS base</value></Data></ExtendedData><Point><coordinates>180.000000000,-16.800000000</coordinates></Point></Placemark>
</Document>
</kml>
