<?xml version="1.0" encoding="UTF-8"?>
<kml xmlns="http://www.opengis.net/kml/2.2">
<Document>
<name>Regional-scale features (synthetic)</name>
<Placemark><name>Deccan plateau study area</name><ExtendedData><Data name="note"><value>7 degrees wide: wider than a UTM zone</value></Data></ExtendedData><Polygon><outerBoundaryIs><LinearRing><coordinates>73.500000000,15.000000000 77.000000000,14.200000000 80.500000000,15.200000000 80.200000000,18.800000000 77.000000000,19.600000000 73.800000000,18.900000000 73.500000000,15.000000000</coordinates></LinearRing></outerBoundaryIs></Polygon></Placemark>
<Placemark><name>Mumbai-Kolkata rail corridor</name><ExtendedData><Data name="note"><value>15.5 degrees of longitude</value></Data></ExtendedData><LineString><coordinates>72.840000000,18.940000000 75.000000000,20.000000000 79.080000000,21.150000000 81.630000000,21.250000000 85.300000000,22.800000000 88.360000000,22.570000000</coordinates></LineString></Placemark>
<Placemark><name>Antarctic survey area</name><ExtendedData><Data name="note"><value>South of UTM's 80S limit</value></Data></ExtendedData><Polygon><outerBoundaryIs><LinearRing><coordinates>70.000000000,-82.000000000 80.000000000,-82.000000000 80.000000000,-85.000000000 70.000000000,-85.000000000 70.000000000,-82.000000000</coordinates></LinearRing></outerBoundaryIs></Polygon></Placemark>
<Placemark><name>Ladakh survey block</name><ExtendedData><Data name="note"><value>Fits one UTM zone's width but reaches past its edge at 78E</value></Data></ExtendedData><Polygon><outerBoundaryIs><LinearRing><coordinates>77.000000000,33.800000000 78.500000000,33.800000000 78.500000000,34.800000000 77.000000000,34.800000000 77.000000000,33.800000000</coordinates></LinearRing></outerBoundaryIs></Polygon></Placemark>
</Document>
</kml>
