<?xml version="1.0" encoding="UTF-8"?>
<kml xmlns="http://www.opengis.net/kml/2.2">
<Document>
<name>Village settlement survey - Kunduru (synthetic)</name>
<Folder><name>Settlement boundary</name>
<Placemark><name>Settlement boundary</name><ExtendedData><Data name="village_code"><value>0417</value></Data><Data name="taluk"><value>Tumakuru</value></Data></ExtendedData><Polygon><outerBoundaryIs><LinearRing><coordinates>77.049268661,13.297961440 77.049281116,13.299443457 77.050323748,13.299435049 77.050311286,13.297953033 77.049268661,13.297961440</coordinates></LinearRing></outerBoundaryIs></Polygon></Placemark>
</Folder>
<Folder><name>Property parcels</name>
<Placemark id="plot-1"><name>Property 0001</name><ExtendedData><Data name="property_id"><value>KA-TMK-0417-0001</value></Data><Data name="owner_ref"><value>OWN-7919</value></Data><Data name="land_use"><value>Residential</value></Data><Data name="plot_size"><value>9 x 15 m</value></Data><Data name="declared_sqft"><value>1453</value></Data></ExtendedData><Polygon><outerBoundaryIs><LinearRing><coordinates>77.049361689,13.298051063 77.049362828,13.298186613 77.049445869,13.298185944 77.049444730,13.298050394 77.049361689,13.298051063</coordinates></LinearRing></outerBoundaryIs></Polygon></Placemark>
<Placemark id="plot-2"><name>Property 0002</name><ExtendedData><Data name="property_id"><value>KA-TMK-0417-0002</value></Data><Data name="owner_ref"><value>OWN-5838</value></Data><Data name="land_use"><value>Commercial</value></Data><Data name="plot_size"><value>12 x 15 m</value></Data><Data name="declared_sqft"><value>1938</value></Data></ExtendedData><Polygon><outerBoundaryIs><LinearRing><coordinates>77.049444730,13.298050394 77.049445869,13.298185944 77.049556590,13.298185051 77.049555451,13.298049501 77.049444730,13.298050394</coordinates></LinearRing></outerBoundaryIs></Polygon></Placemark>
<Placemark id="plot-3"><name>Property 0003</name><ExtendedData><Data name="property_id"><value>KA-TMK-0417-0003</value></Data><Data name="owner_ref"><value>OWN-3757</value></Data><Data name="land_use"><value>Residential</value></Data><Data name="plot_size"><value>15 x 15 m</value></Data><Data name="declared_sqft"><value>2422</value></Data></ExtendedData><Polygon><outerBoundaryIs><LinearRing><coordinates>77.049555451,13.298049501 77.049556590,13.298185051 77.049694992,13.298183936 77.049693852,13.298048385 77.049555451,13.298049501</coordinates></LinearRing></outerBoundaryIs></Polygon></Placemark>
<Placemark id="plot-4"><name>Property 0004</name><ExtendedData><Data name="property_id"><value>KA-TMK-0417-0004</value></Data><Data name="owner_ref"><value>OWN-1676</value></Data><Data name="land_use"><value>Vacant</value></Data><Data name="plot_size"><value>12 x 15 m</value></Data><Data name="declared_sqft"><value>1938</value></Data></ExtendedData><Polygon><outerBoundaryIs><LinearRing><coordinates>77.049693852,13.298048385 77.049694992,13.298183936 77.049805713,13.298183043 77.049804574,13.298047493 77.049693852,13.298048385</coordinates></LinearRing></outerBoundaryIs></Polygon></Placemark>
<Placemark id="plot-5"><name>Property 0005</name><ExtendedData><Data name="property_id"><value>KA-TMK-0417-0005</value></Data><Data name="owner_ref"><value>OWN-9595</value></Data><Data name="land_use"><value>Residential</value></Data><Data name="plot_size"><value>9 x 15 m</value></Data><Data name="declared_sqft"><value>1453</value></Data></ExtendedData><Polygon><outerBoundaryIs><LinearRing><coordinates>77.049804574,13.298047493 77.049805713,13.298183043 77.049888754,13.298182373 77.049887615,13.298046823 77.049804574,13.298047493</coordinates></LinearRing></outerBoundaryIs></Polygon></Placemark>
<Placemark id="plot-6"><name>Property 0006</name><ExtendedData><Data name="property_id"><value>KA-TMK-0417-0006</value></Data><Data name="owner_ref"><value>OWN-7514</value></Data><Data name="land_use"><value>Community</value></Data><Data name="plot_size"><value>15 x 15 m</value></Data><Data name="declared_sqft"><value>2422</value></Data></ExtendedData><Polygon><outerBoundaryIs><LinearRing><coordinates>77.049887615,13.298046823 77.049888754,13.298182373 77.050027156,13.298181257 77.050026016,13.298045707 77.049887615,13.298046823</coordinates></LinearRing></outerBoundaryIs></Polygon></Placemark>
<Placemark id="plot-7"><name>Property 0007</name><ExtendedData><Data name="property_id"><value>KA-TMK-0417-0007</value></Data><Data name="owner_ref"><value>OWN-5433</value></Data><Data name="land_use"><value>Residential</value></Data><Data name="plot_size"><value>12 x 15 m</value></Data><Data name="declared_sqft"><value>1938</value></Data></ExtendedData><Polygon><outerBoundaryIs><LinearRing><coordinates>77.050026016,13.298045707 77.050027156,13.298181257 77.050137877,13.298180364 77.050136737,13.298044814 77.050026016,13.298045707</coordinates></LinearRing></outerBoundaryIs></Polygon></Placemark>
<Placemark id="plot-8"><name>Property 0008</name><ExtendedData><Data name="property_id"><value>KA-TMK-0417-0008</value></Data><Data name="owner_ref"><value>OWN-3352</value></Data><Data name="land_use"><value>Residential</value></Data><Data name="plot_size"><value>9 x 15 m</value></Data><Data name="declared_sqft"><value>1453</value></Data></ExtendedData><Polygon><outerBoundaryIs><LinearRing><coordinates>77.050136737,13.298044814 77.050137877,13.298180364 77.050220918,13.298179695 77.050219778,13.298044144 77.050136737,13.298044814</coordinates></LinearRing></outerBoundaryIs></Polygon></Placemark>
<Placemark id="plot-9"><name>Property 0009</name><ExtendedData><Data name="property_id"><value>KA-TMK-0417-0009</value></Data><Data name="owner_ref"><value>OWN-1271</value></Data><Data name="land_use"><value>Commercial</value></Data><Data name="plot_size"><value>9 x 18 m</value></Data><Data name="declared_sqft"><value>1744</value></Data></ExtendedData><Polygon><outerBoundaryIs><LinearRing><coordinates>77.049363283,13.298240834 77.049364650,13.298403494 77.049447692,13.298402825 77.049446324,13.298240164 77.049363283,13.298240834</coordinates></LinearRing></outerBoundaryIs></Polygon></Placemark>
<Placemark id="plot-10"><name>Property 0010</name><ExtendedData><Data name="property_id"><value>KA-TMK-0417-0010</value></Data><Data name="owner_ref"><value>OWN-9190</value></Data><Data name="land_use"><value>Residential</value></Data><Data name="plot_size"><value>12 x 18 m</value></Data><Data name="declared_sqft"><value>2325</value></Data></ExtendedData><Polygon><outerBoundaryIs><LinearRing><coordinates>77.049446324,13.298240164 77.049447692,13.298402825 77.049558413,13.298401932 77.049557046,13.298239272 77.049446324,13.298240164</coordinates></LinearRing></outerBoundaryIs></Polygon></Placemark>
<Placemark id="plot-11"><name>Property 0011</name><ExtendedData><Data name="property_id"><value>KA-TMK-0417-0011</value></Data><Data name="owner_ref"><value>OWN-7109</value></Data><Data name="land_use"><value>Vacant</value></Data><Data name="plot_size"><value>15 x 18 m</value></Data><Data name="declared_sqft"><value>2906</value></Data></ExtendedData><Polygon><outerBoundaryIs><LinearRing><coordinates>77.049557046,13.298239272 77.049558413,13.298401932 77.049696815,13.298400816 77.049695448,13.298238156 77.049557046,13.298239272</coordinates></LinearRing></outerBoundaryIs></Polygon></Placemark>
<Placemark id="plot-12"><name>Property 0012</name><ExtendedData><Data name="property_id"><value>KA-TMK-0417-0012</value></Data><Data name="owner_ref"><value>OWN-5028</value></Data><Data name="land_use"><value>Residential</value></Data><Data name="plot_size"><value>12 x 18 m</value></Data><Data name="declared_sqft"><value>2325</value></Data></ExtendedData><Polygon><outerBoundaryIs><LinearRing><coordinates>77.049695448,13.298238156 77.049696815,13.298400816 77.049807536,13.298399923 77.049806169,13.298237263 77.049695448,13.298238156</coordinates></LinearRing></outerBoundaryIs></Polygon></Placemark>
<Placemark id="plot-13"><name>Property 0013</name><ExtendedData><Data name="property_id"><value>KA-TMK-0417-0013</value></Data><Data name="owner_ref"><value>OWN-2947</value></Data><Data name="land_use"><value>Community</value></Data><Data name="plot_size"><value>9 x 18 m</value></Data><Data name="declared_sqft"><value>1744</value></Data></ExtendedData><Polygon><outerBoundaryIs><LinearRing><coordinates>77.049806169,13.298237263 77.049807536,13.298399923 77.049890577,13.298399254 77.049889210,13.298236593 77.049806169,13.298237263</coordinates></LinearRing></outerBoundaryIs></Polygon></Placemark>
<Placemark id="plot-14"><name>Property 0014</name><ExtendedData><Data name="property_id"><value>KA-TMK-0417-0014</value></Data><Data name="owner_ref"><value>OWN-0866</value></Data><Data name="land_use"><value>Residential</value></Data><Data name="plot_size"><value>15 x 18 m</value></Data><Data name="declared_sqft"><value>2906</value></Data></ExtendedData><Polygon><outerBoundaryIs><LinearRing><coordinates>77.049889210,13.298236593 77.049890577,13.298399254 77.050028979,13.298398138 77.050027612,13.298235477 77.049889210,13.298236593</coordinates></LinearRing></outerBoundaryIs></Polygon></Placemark>
<Placemark id="plot-15"><name>Property 0015</name><ExtendedData><Data name="property_id"><value>KA-TMK-0417-0015</value></Data><Data name="owner_ref"><value>OWN-8785</value></Data><Data name="land_use"><value>Residential</value></Data><Data name="plot_size"><value>12 x 18 m</value></Data><Data name="declared_sqft"><value>2325</value></Data></ExtendedData><Polygon><outerBoundaryIs><LinearRing><coordinates>77.050027612,13.298235477 77.050028979,13.298398138 77.050139700,13.298397245 77.050138333,13.298234584 77.050027612,13.298235477</coordinates></LinearRing></outerBoundaryIs></Polygon></Placemark>
<Placemark id="plot-16"><name>Property 0016</name><ExtendedData><Data name="property_id"><value>KA-TMK-0417-0016</value></Data><Data name="owner_ref"><value>OWN-6704</value></Data><Data name="land_use"><value>Commercial</value></Data><Data name="plot_size"><value>9 x 18 m</value></Data><Data name="declared_sqft"><value>1744</value></Data></ExtendedData><Polygon><outerBoundaryIs><LinearRing><coordinates>77.050138333,13.298234584 77.050139700,13.298397245 77.050222741,13.298396575 77.050221374,13.298233915 77.050138333,13.298234584</coordinates></LinearRing></outerBoundaryIs></Polygon></Placemark>
<Placemark id="plot-17"><name>Property 0017</name><ExtendedData><Data name="property_id"><value>KA-TMK-0417-0017</value></Data><Data name="owner_ref"><value>OWN-4623</value></Data><Data name="land_use"><value>Residential</value></Data><Data name="plot_size"><value>9 x 24 m</value></Data><Data name="declared_sqft"><value>2325</value></Data></ExtendedData><Polygon><outerBoundaryIs><LinearRing><coordinates>77.049365106,13.298457714 77.049366929,13.298674595 77.049449970,13.298673925 77.049448147,13.298457045 77.049365106,13.298457714</coordinates></LinearRing></outerBoundaryIs></Polygon></Placemark>
<Placemark id="plot-18"><name>Property 0018</name><ExtendedData><Data name="property_id"><value>KA-TMK-0417-0018</value></Data><Data name="owner_ref"><value>OWN-2542</value></Data><Data name="land_use"><value>Vacant</value></Data><Data name="plot_size"><value>12 x 24 m</value></Data><Data name="declared_sqft"><value>3100</value></Data></ExtendedData><Polygon><outerBoundaryIs><LinearRing><coordinates>77.049448147,13.298457045 77.049449970,13.298673925 77.049560692,13.298673033 77.049558869,13.298456152 77.049448147,13.298457045</coordinates></LinearRing></outerBoundaryIs></Polygon></Placemark>
<Placemark id="plot-19"><name>Property 0019</name><ExtendedData><Data name="property_id"><value>KA-TMK-0417-0019</value></Data><Data name="owner_ref"><value>OWN-0461</value></Data><Data name="land_use"><value>Residential</value></Data><Data name="plot_size"><value>15 x 24 m</value></Data><Data name="declared_sqft"><value>3875</value></Data></ExtendedData><Polygon><outerBoundaryIs><LinearRing><coordinates>77.049558869,13.298456152 77.049560692,13.298673033 77.049699094,13.298671917 77.049697271,13.298455036 77.049558869,13.298456152</coordinates></LinearRing></outerBoundaryIs></Polygon></Placemark>
<Placemark id="plot-20"><name>Property 0020</name><ExtendedData><Data name="property_id"><value>KA-TMK-0417-0020</value></Data><Data name="owner_ref"><value>OWN-8380</value></Data><Data name="land_use"><value>Community</value></Data><Data name="plot_size"><value>12 x 24 m</value></Data><Data name="declared_sqft"><value>3100</value></Data></ExtendedData><Polygon><outerBoundaryIs><LinearRing><coordinates>77.049697271,13.298455036 77.049699094,13.298671917 77.049809815,13.298671024 77.049807992,13.298454143 77.049697271,13.298455036</coordinates></LinearRing></outerBoundaryIs></Polygon></Placemark>
<Placemark id="plot-21"><name>Property 0021</name><ExtendedData><Data name="property_id"><value>KA-TMK-0417-0021</value></Data><Data name="owner_ref"><value>OWN-6299</value></Data><Data name="land_use"><value>Residential</value></Data><Data name="plot_size"><value>9 x 24 m</value></Data><Data name="declared_sqft"><value>2325</value></Data></ExtendedData><Polygon><outerBoundaryIs><LinearRing><coordinates>77.049807992,13.298454143 77.049809815,13.298671024 77.049892856,13.298670354 77.049891033,13.298453474 77.049807992,13.298454143</coordinates></LinearRing></outerBoundaryIs></Polygon></Placemark>
<Placemark id="plot-22"><name>Property 0022</name><ExtendedData><Data name="property_id"><value>KA-TMK-0417-0022</value></Data><Data name="owner_ref"><value>OWN-4218</value></Data><Data name="land_use"><value>Residential</value></Data><Data name="plot_size"><value>15 x 24 m</value></Data><Data name="declared_sqft"><value>3875</value></Data></ExtendedData><Polygon><outerBoundaryIs><LinearRing><coordinates>77.049891033,13.298453474 77.049892856,13.298670354 77.050031258,13.298669238 77.050029435,13.298452358 77.049891033,13.298453474</coordinates></LinearRing></outerBoundaryIs></Polygon></Placemark>
<Placemark id="plot-23"><name>Property 0023</name><ExtendedData><Data name="property_id"><value>KA-TMK-0417-0023</value></Data><Data name="owner_ref"><value>OWN-2137</value></Data><Data name="land_use"><value>Commercial</value></Data><Data name="plot_size"><value>12 x 24 m</value></Data><Data name="declared_sqft"><value>3100</value></Data></ExtendedData><Polygon><outerBoundaryIs><LinearRing><coordinates>77.050029435,13.298452358 77.050031258,13.298669238 77.050141980,13.298668345 77.050140156,13.298451465 77.050029435,13.298452358</coordinates></LinearRing></outerBoundaryIs></Polygon></Placemark>
<Placemark id="plot-24"><name>Property 0024</name><ExtendedData><Data name="property_id"><value>KA-TMK-0417-0024</value></Data><Data name="owner_ref"><value>OWN-0056</value></Data><Data name="land_use"><value>Residential</value></Data><Data name="plot_size"><value>9 x 24 m</value></Data><Data name="declared_sqft"><value>2325</value></Data></ExtendedData><Polygon><outerBoundaryIs><LinearRing><coordinates>77.050140156,13.298451465 77.050141980,13.298668345 77.050225021,13.298667676 77.050223197,13.298450795 77.050140156,13.298451465</coordinates></LinearRing></outerBoundaryIs></Polygon></Placemark>
<Placemark id="plot-25"><name>Property 0025</name><ExtendedData><Data name="property_id"><value>KA-TMK-0417-0025</value></Data><Data name="owner_ref"><value>OWN-7975</value></Data><Data name="land_use"><value>Vacant</value></Data><Data name="plot_size"><value>9 x 18 m</value></Data><Data name="declared_sqft"><value>1744</value></Data></ExtendedData><Polygon><outerBoundaryIs><LinearRing><coordinates>77.049367385,13.298728815 77.049368752,13.298891475 77.049451793,13.298890806 77.049450426,13.298728145 77.049367385,13.298728815</coordinates></LinearRing></outerBoundaryIs></Polygon></Placemark>
<Placemark id="plot-26"><name>Property 0026</name><ExtendedData><Data name="property_id"><value>KA-TMK-0417-0026</value></Data><Data name="owner_ref"><value>OWN-5894</value></Data><Data name="land_use"><value>Residential</value></Data><Data name="plot_size"><value>12 x 18 m</value></Data><Data name="declared_sqft"><value>2325</value></Data></ExtendedData><Polygon><outerBoundaryIs><LinearRing><coordinates>77.049450426,13.298728145 77.049451793,13.298890806 77.049562515,13.298889913 77.049561147,13.298727253 77.049450426,13.298728145</coordinates></LinearRing></outerBoundaryIs></Polygon></Placemark>
<Placemark id="plot-27"><name>Property 0027</name><ExtendedData><Data name="property_id"><value>KA-TMK-0417-0027</value></Data><Data name="owner_ref"><value>OWN-3813</value></Data><Data name="land_use"><value>Community</value></Data><Data name="plot_size"><value>15 x 18 m</value></Data><Data name="declared_sqft"><value>2906</value></Data></ExtendedData><Polygon><outerBoundaryIs><LinearRing><coordinates>77.049561147,13.298727253 77.049562515,13.298889913 77.049700917,13.298888797 77.049699549,13.298726137 77.049561147,13.298727253</coordinates></LinearRing></outerBoundaryIs></Polygon></Placemark>
<Placemark id="plot-28"><name>Property 0028</name><ExtendedData><Data name="property_id"><value>KA-TMK-0417-0028</value></Data><Data name="owner_ref"><value>OWN-1732</value></Data><Data name="land_use"><value>Residential</value></Data><Data name="plot_size"><value>12 x 18 m</value></Data><Data name="declared_sqft"><value>2325</value></Data></ExtendedData><Polygon><outerBoundaryIs><LinearRing><coordinates>77.049699549,13.298726137 77.049700917,13.298888797 77.049811638,13.298887904 77.049810271,13.298725244 77.049699549,13.298726137</coordinates></LinearRing></outerBoundaryIs></Polygon></Placemark>
<Placemark id="plot-29"><name>Property 0029</name><ExtendedData><Data name="property_id"><value>KA-TMK-0417-0029</value></Data><Data name="owner_ref"><value>OWN-9651</value></Data><Data name="land_use"><value>Residential</value></Data><Data name="plot_size"><value>9 x 18 m</value></Data><Data name="declared_sqft"><value>1744</value></Data></ExtendedData><Polygon><outerBoundaryIs><LinearRing><coordinates>77.049810271,13.298725244 77.049811638,13.298887904 77.049894680,13.298887235 77.049893312,13.298724574 77.049810271,13.298725244</coordinates></LinearRing></outerBoundaryIs></Polygon></Placemark>
<Placemark id="plot-30"><name>Property 0030</name><ExtendedData><Data name="property_id"><value>KA-TMK-0417-0030</value></Data><Data name="owner_ref"><value>OWN-7570</value></Data><Data name="land_use"><value>Commercial</value></Data><Data name="plot_size"><value>15 x 18 m</value></Data><Data name="declared_sqft"><value>2906</value></Data></ExtendedData><Polygon><outerBoundaryIs><LinearRing><coordinates>77.049893312,13.298724574 77.049894680,13.298887235 77.050033082,13.298886119 77.050031714,13.298723458 77.049893312,13.298724574</coordinates></LinearRing></outerBoundaryIs></Polygon></Placemark>
<Placemark id="plot-31"><name>Property 0031</name><ExtendedData><Data name="property_id"><value>KA-TMK-0417-0031</value></Data><Data name="owner_ref"><value>OWN-5489</value></Data><Data name="land_use"><value>Residential</value></Data><Data name="plot_size"><value>12 x 18 m</value></Data><Data name="declared_sqft"><value>2325</value></Data></ExtendedData><Polygon><outerBoundaryIs><LinearRing><coordinates>77.050031714,13.298723458 77.050033082,13.298886119 77.050143803,13.298885226 77.050142436,13.298722565 77.050031714,13.298723458</coordinates></LinearRing></outerBoundaryIs></Polygon></Placemark>
<Placemark id="plot-32"><name>Property 0032</name><ExtendedData><Data name="property_id"><value>KA-TMK-0417-0032</value></Data><Data name="owner_ref"><value>OWN-3408</value></Data><Data name="land_use"><value>Vacant</value></Data><Data name="plot_size"><value>9 x 18 m</value></Data><Data name="declared_sqft"><value>1744</value></Data></ExtendedData><Polygon><outerBoundaryIs><LinearRing><coordinates>77.050142436,13.298722565 77.050143803,13.298885226 77.050226844,13.298884556 77.050225477,13.298721896 77.050142436,13.298722565</coordinates></LinearRing></outerBoundaryIs></Polygon></Placemark>
<Placemark id="plot-33"><name>Property 0033</name><ExtendedData><Data name="property_id"><value>KA-TMK-0417-0033</value></Data><Data name="owner_ref"><value>OWN-1327</value></Data><Data name="land_use"><value>Residential</value></Data><Data name="plot_size"><value>9 x 15 m</value></Data><Data name="declared_sqft"><value>1453</value></Data></ExtendedData><Polygon><outerBoundaryIs><LinearRing><coordinates>77.049369207,13.298945695 77.049370347,13.299081246 77.049453388,13.299080576 77.049452249,13.298945026 77.049369207,13.298945695</coordinates></LinearRing></outerBoundaryIs></Polygon></Placemark>
<Placemark id="plot-34"><name>Property 0034</name><ExtendedData><Data name="property_id"><value>KA-TMK-0417-0034</value></Data><Data name="owner_ref"><value>OWN-9246</value></Data><Data name="land_use"><value>Community</value></Data><Data name="plot_size"><value>12 x 15 m</value></Data><Data name="declared_sqft"><value>1938</value></Data></ExtendedData><Polygon><outerBoundaryIs><LinearRing><coordinates>77.049452249,13.298945026 77.049453388,13.299080576 77.049564110,13.299079683 77.049562970,13.298944133 77.049452249,13.298945026</coordinates></LinearRing></outerBoundaryIs></Polygon></Placemark>
<Placemark id="plot-35"><name>Property 0035</name><ExtendedData><Data name="property_id"><value>KA-TMK-0417-0035</value></Data><Data name="owner_ref"><value>OWN-7165</value></Data><Data name="land_use"><value>Residential</value></Data><Data name="plot_size"><value>15 x 15 m</value></Data><Data name="declared_sqft"><value>2422</value></Data></ExtendedData><Polygon><outerBoundaryIs><LinearRing><coordinates>77.049562970,13.298944133 77.049564110,13.299079683 77.049702512,13.299078568 77.049701372,13.298943017 77.049562970,13.298944133</coordinates></LinearRing></outerBoundaryIs></Polygon></Placemark>
<Placemark id="plot-36"><name>Property 0036</name><ExtendedData><Data name="property_id"><value>KA-TMK-0417-0036</value></Data><Data name="owner_ref"><value>OWN-5084</value></Data><Data name="land_use"><value>Residential</value></Data><Data name="plot_size"><value>12 x 15 m</value></Data><Data name="declared_sqft"><value>1938</value></Data></ExtendedData><Polygon><outerBoundaryIs><LinearRing><coordinates>77.049701372,13.298943017 77.049702512,13.299078568 77.049813234,13.299077675 77.049812094,13.298942124 77.049701372,13.298943017</coordinates></LinearRing></outerBoundaryIs></Polygon></Placemark>
<Placemark id="plot-37"><name>Property 0037</name><ExtendedData><Data name="property_id"><value>KA-TMK-0417-0037</value></Data><Data name="owner_ref"><value>OWN-3003</value></Data><Data name="land_use"><value>Commercial</value></Data><Data name="plot_size"><value>9 x 15 m</value></Data><Data name="declared_sqft"><value>1453</value></Data></ExtendedData><Polygon><outerBoundaryIs><LinearRing><coordinates>77.049812094,13.298942124 77.049813234,13.299077675 77.049896275,13.299077005 77.049895135,13.298941455 77.049812094,13.298942124</coordinates></LinearRing></outerBoundaryIs></Polygon></Placemark>
<Placemark id="plot-38"><name>Property 0038</name><ExtendedData><Data name="property_id"><value>KA-TMK-0417-0038</value></Data><Data name="owner_ref"><value>OWN-0922</value></Data><Data name="land_use"><value>Residential</value></Data><Data name="plot_size"><value>15 x 15 m</value></Data><Data name="declared_sqft"><value>2422</value></Data></ExtendedData><Polygon><outerBoundaryIs><LinearRing><coordinates>77.049895135,13.298941455 77.049896275,13.299077005 77.050034677,13.299075889 77.050033537,13.298940339 77.049895135,13.298941455</coordinates></LinearRing></outerBoundaryIs></Polygon></Placemark>
<Placemark id="plot-39"><name>Property 0039</name><ExtendedData><Data name="property_id"><value>KA-TMK-0417-0039</value></Data><Data name="owner_ref"><value>OWN-8841</value></Data><Data name="land_use"><value>Vacant</value></Data><Data name="plot_size"><value>12 x 15 m</value></Data><Data name="declared_sqft"><value>1938</value></Data></ExtendedData><Polygon><outerBoundaryIs><LinearRing><coordinates>77.050033537,13.298940339 77.050034677,13.299075889 77.050145399,13.299074996 77.050144259,13.298939446 77.050033537,13.298940339</coordinates></LinearRing></outerBoundaryIs></Polygon></Placemark>
<Placemark id="plot-40"><name>Property 0040</name><ExtendedData><Data name="property_id"><value>KA-TMK-0417-0040</value></Data><Data name="owner_ref"><value>OWN-6760</value></Data><Data name="land_use"><value>Residential</value></Data><Data name="plot_size"><value>9 x 15 m</value></Data><Data name="declared_sqft"><value>1453</value></Data></ExtendedData><Polygon><outerBoundaryIs><LinearRing><coordinates>77.050144259,13.298939446 77.050145399,13.299074996 77.050228440,13.299074326 77.050227300,13.298938776 77.050144259,13.298939446</coordinates></LinearRing></outerBoundaryIs></Polygon></Placemark>
<Placemark id="plot-41"><name>Property 0041</name><ExtendedData><Data name="property_id"><value>KA-TMK-0417-0041</value></Data><Data name="owner_ref"><value>OWN-4679</value></Data><Data name="land_use"><value>Community</value></Data><Data name="plot_size"><value>9 x 24 m</value></Data><Data name="declared_sqft"><value>2325</value></Data></ExtendedData><Polygon><outerBoundaryIs><LinearRing><coordinates>77.049370802,13.299135466 77.049372625,13.299352346 77.049455667,13.299351677 77.049453844,13.299134796 77.049370802,13.299135466</coordinates></LinearRing></outerBoundaryIs></Polygon></Placemark>
<Placemark id="plot-42"><name>Property 0042</name><ExtendedData><Data name="property_id"><value>KA-TMK-0417-0042</value></Data><Data name="owner_ref"><value>OWN-2598</value></Data><Data name="land_use"><value>Residential</value></Data><Data name="plot_size"><value>12 x 24 m</value></Data><Data name="declared_sqft"><value>3100</value></Data></ExtendedData><Polygon><outerBoundaryIs><LinearRing><coordinates>77.049453844,13.299134796 77.049455667,13.299351677 77.049566388,13.299350784 77.049564565,13.299133904 77.049453844,13.299134796</coordinates></LinearRing></outerBoundaryIs></Polygon></Placemark>
<Placemark id="plot-43"><name>Property 0043</name><ExtendedData><Data name="property_id"><value>KA-TMK-0417-0043</value></Data><Data name="owner_ref"><value>OWN-0517</value></Data><Data name="land_use"><value>Residential</value></Data><Data name="plot_size"><value>15 x 24 m</value></Data><Data name="declared_sqft"><value>3875</value></Data></ExtendedData><Polygon><outerBoundaryIs><LinearRing><coordinates>77.049564565,13.299133904 77.049566388,13.299350784 77.049704791,13.299349668 77.049702968,13.299132788 77.049564565,13.299133904</coordinates></LinearRing></outerBoundaryIs></Polygon></Placemark>
<Placemark id="plot-44"><name>Property 0044</name><ExtendedData><Data name="property_id"><value>KA-TMK-0417-0044</value></Data><Data name="owner_ref"><value>OWN-8436</value></Data><Data name="land_use"><value>Commercial</value></Data><Data name="plot_size"><value>12 x 24 m</value></Data><Data name="declared_sqft"><value>3100</value></Data></ExtendedData><Polygon><outerBoundaryIs><LinearRing><coordinates>77.049702968,13.299132788 77.049704791,13.299349668 77.049815513,13.299348775 77.049813689,13.299131895 77.049702968,13.299132788</coordinates></LinearRing></outerBoundaryIs></Polygon></Placemark>
<Placemark id="plot-45"><name>Property 0045</name><ExtendedData><Data name="property_id"><value>KA-TMK-0417-0045</value></Data><Data name="owner_ref"><value>OWN-6355</value></Data><Data name="land_use"><value>Residential</value></Data><Data name="plot_size"><value>9 x 24 m</value></Data><Data name="declared_sqft"><value>2325</value></Data></ExtendedData><Polygon><outerBoundaryIs><LinearRing><coordinates>77.049813689,13.299131895 77.049815513,13.299348775 77.049898554,13.299348106 77.049896731,13.299131225 77.049813689,13.299131895</coordinates></LinearRing></outerBoundaryIs></Polygon></Placemark>
<Placemark id="plot-46"><name>Property 0046</name><ExtendedData><Data name="property_id"><value>KA-TMK-0417-0046</value></Data><Data name="owner_ref"><value>OWN-4274</value></Data><Data name="land_use"><value>Vacant</value></Data><Data name="plot_size"><value>15 x 24 m</value></Data><Data name="declared_sqft"><value>3875</value></Data></ExtendedData><Polygon><outerBoundaryIs><LinearRing><coordinates>77.049896731,13.299131225 77.049898554,13.299348106 77.050036956,13.299346990 77.050035133,13.299130109 77.049896731,13.299131225</coordinates></LinearRing></outerBoundaryIs></Polygon></Placemark>
<Placemark id="plot-47"><name>Property 0047</name><ExtendedData><Data name="property_id"><value>KA-TMK-0417-0047</value></Data><Data name="owner_ref"><value>OWN-2193</value></Data><Data name="land_use"><value>Residential</value></Data><Data name="plot_size"><value>12 x 24 m</value></Data><Data name="declared_sqft"><value>3100</value></Data></ExtendedData><Polygon><outerBoundaryIs><LinearRing><coordinates>77.050035133,13.299130109 77.050036956,13.299346990 77.050147678,13.299346097 77.050145855,13.299129216 77.050035133,13.299130109</coordinates></LinearRing></outerBoundaryIs></Polygon></Placemark>
<Placemark id="plot-48"><name>Property 0048</name><ExtendedData><Data name="property_id"><value>KA-TMK-0417-0048</value></Data><Data name="owner_ref"><value>OWN-0112</value></Data><Data name="land_use"><value>Community</value></Data><Data name="plot_size"><value>9 x 24 m</value></Data><Data name="declared_sqft"><value>2325</value></Data></ExtendedData><Polygon><outerBoundaryIs><LinearRing><coordinates>77.050145855,13.299129216 77.050147678,13.299346097 77.050230719,13.299345427 77.050228896,13.299128546 77.050145855,13.299129216</coordinates></LinearRing></outerBoundaryIs></Polygon></Placemark>
</Folder>
<Folder><name>Lanes</name>
<Placemark><name>Lane 1</name><ExtendedData><Data name="width_m"><value>6</value></Data><Data name="surface"><value>Concrete</value></Data></ExtendedData><LineString><coordinates>77.049270788,13.298214467 77.050313414,13.298206061</coordinates></LineString></Placemark>
<Placemark><name>Lane 2</name><ExtendedData><Data name="width_m"><value>6</value></Data><Data name="surface"><value>Concrete</value></Data></ExtendedData><LineString><coordinates>77.049272610,13.298431348 77.050315237,13.298422941</coordinates></LineString></Placemark>
<Placemark><name>Lane 3</name><ExtendedData><Data name="width_m"><value>6</value></Data><Data name="surface"><value>Concrete</value></Data></ExtendedData><LineString><coordinates>77.049274889,13.298702449 77.050317517,13.298694041</coordinates></LineString></Placemark>
<Placemark><name>Lane 4</name><ExtendedData><Data name="width_m"><value>6</value></Data><Data name="surface"><value>Concrete</value></Data></ExtendedData><LineString><coordinates>77.049276711,13.298919329 77.050319340,13.298910922</coordinates></LineString></Placemark>
<Placemark><name>Lane 5</name><ExtendedData><Data name="width_m"><value>6</value></Data><Data name="surface"><value>Concrete</value></Data></ExtendedData><LineString><coordinates>77.049278306,13.299109100 77.050320936,13.299100692</coordinates></LineString></Placemark>
</Folder>
<Folder><name>Landmarks</name>
<Placemark><name>Community well</name><Point><coordinates>77.049315175,13.298006252</coordinates></Point></Placemark>
<Placemark><name>Panchayat office</name><Point><coordinates>77.050277234,13.299390238</coordinates></Point></Placemark>
</Folder>
</Document>
</kml>
